{"type": "FeatureCollection", "features": [ {"type": "Feature", "properties": {"norad_id": 31341, "name": "FENGYUN 1C DEB", "group": "fengyun-1c-debris", "lat": 74.71085675023718, "lon": -96.6657936652062, "alt_km": 742.6498909597267, "timestamp": "2025-12-27T22:26:48.884919+00:00", "meta": {"OBJECT_NAME": "FENGYUN 1C DEB", "OBJECT_ID": "1999-025BQV", "EPOCH": "2025-12-27T02:24:24.908256", "MEAN_MOTION": 14.5347001, "ECCENTRICITY": 0.00530002, "INCLINATION": 99.5551, "RA_OF_ASC_NODE": 44.3455, "ARG_OF_PERICENTER": 303.4736, "MEAN_ANOMALY": 111.62, "EPHEMERIS_TYPE": 0, "CLASSIFICATION_TYPE": "U", "NORAD_CAT_ID": 31341, "ELEMENT_SET_NO": 999, "REV_AT_EPOCH": 97827, "BSTAR": 0.0015194618, "MEAN_MOTION_DOT": 6.397e-05, "MEAN_MOTION_DDOT": 0}, "tle": {"line1": "1 31341U 99025BQV 25361.10028829  .00006397  00000+0  15195-2 0  9991", "line2": "2 31341  99.5551  44.3455 0053000 303.4736 111.6200 14.53470010978276"}}, "geometry": {"type": "Point", "coordinates": [-96.6657936652062, 74.71085675023718]}}, {"type": "Feature", "properties": {"norad_id": 31342, "name": "FENGYUN 1C DEB", "group": "fengyun-1c-debris", "lat": 37.439209406527155, "lon": -48.150877295020834, "alt_km": 823.9793913122257, "timestamp": "2025-12-27T22:26:48.884929+00:00", "meta": {"OBJECT_NAME": "FENGYUN 1C DEB", "OBJECT_ID": "1999-025BQW", "EPOCH": "2025-12-26T02:48:41.180256", "MEAN_MOTION": 14.36778635, "ECCENTRICITY": 0.01120291, "INCLINATION": 98.9375, "RA_OF_ASC_NODE": 316.8824, "ARG_OF_PERICENTER": 179.8231, "MEAN_ANOMALY": 180.3013, "EPHEMERIS_TYPE": 0, "CLASSIFICATION_TYPE": "U", "NORAD_CAT_ID": 31342, "ELEMENT_SET_NO": 999, "REV_AT_EPOCH": 98083, "BSTAR": 0.00011079639, "MEAN_MOTION_DOT": 3.01e-06, "MEAN_MOTION_DDOT": 0}, "tle": {"line1": "1 31342U 99025BQW 25360.11714329  .00000301  00000+0  11080-3 0  9998", "line2": "2 31342  98.9375 316.8824 0112029 179.8231 180.3013 14.36778635980838"}}, "geometry": {"type": "Point", "coordinates": [-48.150877295020834, 37.439209406527155]}}, {"type": "Feature", "properties": {"norad_id": 31346, "name": "FENGYUN 1C DEB", "group": "fengyun-1c-debris", "lat": -30.94847449948606, "lon": -23.32226347996977, "alt_km": 462.4929432732097, "timestamp": "2025-12-27T22:26:48.884939+00:00", "meta": {"OBJECT_NAME": "FENGYUN 1C DEB", "OBJECT_ID": "1999-025BRA", "EPOCH": "2025-12-22T15:28:43.197024", "MEAN_MOTION": 15.11348724, "ECCENTRICITY": 0.0108825, "INCLINATION": 98.867, "RA_OF_ASC_NODE": 325.1755, "ARG_OF_PERICENTER": 342.8884, "MEAN_ANOMALY": 16.8683, "EPHEMERIS_TYPE": 0, "CLASSIFICATION_TYPE": "U", "NORAD_CAT_ID": 31346, "ELEMENT_SET_NO": 999, "REV_AT_EPOCH": 99645, "BSTAR": 0.0012559476, "MEAN_MOTION_DOT": 0.00024407, "MEAN_MOTION_DDOT": 0}, "tle": {"line1": "1 31346U 99025BRA 25356.64494441  .00024407  00000+0  12559-2 0  9999", "line2": "2 31346  98.8670 325.1755 0108825 342.8884  16.8683 15.11348724996457"}}, "geometry": {"type": "Point", "coordinates": [-23.32226347996977, -30.94847449948606]}}, {"type": "Feature", "properties": {"norad_id": 31348, "name": "FENGYUN 1C DEB", "group": "fengyun-1c-debris", "lat": 79.51761391500521, "lon": -166.00126942751322, "alt_km": 762.7615111794075, "timestamp": "2025-12-27T22:26:48.884949+00:00", "meta": {"OBJECT_NAME": "FENGYUN 1C DEB", "OBJECT_ID": "1999-025BRC", "EPOCH": "2025-12-26T16:26:24.153792", "MEAN_MOTION": 14.34133037, "ECCENTRICITY": 0.00353331, "INCLINATION": 99.1209, "RA_OF_ASC_NODE": 312.4202, "ARG_OF_PERICENTER": 26.4586, "MEAN_ANOMALY": 96.8666, "EPHEMERIS_TYPE": 0, "CLASSIFICATION_TYPE": "U", "NORAD_CAT_ID": 31348, "ELEMENT_SET_NO": 999, "REV_AT_EPOCH": 96449, "BSTAR": 0.0013416035, "MEAN_MOTION_DOT": 3.735e-05, "MEAN_MOTION_DDOT": 0}, "tle": {"line1": "1 31348U 99025BRC 25360.68500178  .00003735  00000+0  13416-2 0  9999", "line2": "2 31348  99.1209 312.4202 0035333  26.4586  96.8666 14.34133037964495"}}, "geometry": {"type": "Point", "coordinates": [-166.00126942751322, 79.51761391500521]}}, {"type": "Feature", "properties": {"norad_id": 31350, "name": "FENGYUN 1C DEB", "group": "fengyun-1c-debris", "lat": 37.624378029932174, "lon": 167.5335565414802, "alt_km": 737.3625884036574, "timestamp": "2025-12-27T22:26:48.884959+00:00", "meta": {"OBJECT_NAME": "FENGYUN 1C DEB", "OBJECT_ID": "1999-025BRE", "EPOCH": "2025-12-20T17:53:36.412512", "MEAN_MOTION": 14.34870807, "ECCENTRICITY": 0.00669241, "INCLINATION": 98.9598, "RA_OF_ASC_NODE": 167.0621, "ARG_OF_PERICENTER": 102.0687, "MEAN_ANOMALY": 258.8007, "EPHEMERIS_TYPE": 0, "CLASSIFICATION_TYPE": "U", "NORAD_CAT_ID": 31350, "ELEMENT_SET_NO": 999, "REV_AT_EPOCH": 70368, "BSTAR": 0.00033722959, "MEAN_MOTION_DOT": 9.36e-06, "MEAN_MOTION_DDOT": 0}, "tle": {"line1": "1 31350U 99025BRE 25354.74556033  .00000936  00000+0  33723-3 0  9997", "line2": "2 31350  98.9598 167.0621 0066924 102.0687 258.8007 14.34870807703682"}}, "geometry": {"type": "Point", "coordinates": [167.5335565414802, 37.624378029932174]}}, {"type": "Feature", "properties": {"norad_id": 31351, "name": "FENGYUN 1C DEB", "group": "fengyun-1c-debris", "lat": -1.0882808376679987, "lon": 168.12767302494723, "alt_km": 939.8723560813633, "timestamp": "2025-12-27T22:26:48.884969+00:00", "meta": {"OBJECT_NAME": "FENGYUN 1C DEB", "OBJECT_ID": "1999-025BRF", "EPOCH": "2025-12-22T10:10:17.163264", "MEAN_MOTION": 14.06949106, "ECCENTRICITY": 0.00933431, "INCLINATION": 98.7956, "RA_OF_ASC_NODE": 342.9353, "ARG_OF_PERICENTER": 24.2832, "MEAN_ANOMALY": 336.2694, "EPHEMERIS_TYPE": 0, "CLASSIFICATION_TYPE": "U", "NORAD_CAT_ID": 31351, "ELEMENT_SET_NO": 999, "REV_AT_EPOCH": 61511, "BSTAR": 0.0002975243, "MEAN_MOTION_DOT": 4.73e-06, "MEAN_MOTION_DDOT": 0}, "tle": {"line1": "1 31351U 99025BRF 25356.42380976  .00000473  00000+0  29752-3 0  9999", "line2": "2 31351  98.7956 342.9353 0093343  24.2832 336.2694 14.06949106615118"}}, "geometry": {"type": "Point", "coordinates": [168.12767302494723, -1.0882808376679987]}}, {"type": "Feature", "properties": {"norad_id": 31353, "name": "FENGYUN 1C DEB", "group": "fengyun-1c-debris", "lat": -26.891008090971063, "lon": 103.10244695559727, "alt_km": 961.6440179811752, "timestamp": "2025-12-27T22:26:48.884978+00:00", "meta": {"OBJECT_NAME": "FENGYUN 1C DEB", "OBJECT_ID": "1999-025BRH", "EPOCH": "2025-12-23T01:36:34.682976", "MEAN_MOTION": 14.29884822, "ECCENTRICITY": 0.02291012, "INCLINATION": 98.9918, "RA_OF_ASC_NODE": 282.6778, "ARG_OF_PERICENTER": 37.6194, "MEAN_ANOMALY": 324.0767, "EPHEMERIS_TYPE": 0, "CLASSIFICATION_TYPE": "U", "NORAD_CAT_ID": 31353, "ELEMENT_SET_NO": 999, "REV_AT_EPOCH": 96732, "BSTAR": 0.000644123, "MEAN_MOTION_DOT": 2.152e-05, "MEAN_MOTION_DDOT": 0}, "tle": {"line1": "1 31353U 99025BRH 25357.06706809  .00002152  00000+0  64412-3 0  9997", "line2": "2 31353  98.9918 282.6778 0229101  37.6194 324.0767 14.29884822967320"}}, "geometry": {"type": "Point", "coordinates": [103.10244695559727, -26.891008090971063]}}, {"type": "Feature", "properties": {"norad_id": 31357, "name": "FENGYUN 1C DEB", "group": "fengyun-1c-debris", "lat": -39.48756572616067, "lon": -154.67895793607187, "alt_km": 805.6302930611837, "timestamp": "2025-12-27T22:26:48.884988+00:00", "meta": {"OBJECT_NAME": "FENGYUN 1C DEB", "OBJECT_ID": "1999-025BRM", "EPOCH": "2025-12-27T07:55:44.660928", "MEAN_MOTION": 14.18529526, "ECCENTRICITY": 0.0048859, "INCLINATION": 98.6095, "RA_OF_ASC_NODE": 31.9051, "ARG_OF_PERICENTER": 249.6761, "MEAN_ANOMALY": 123.1637, "EPHEMERIS_TYPE": 0, "CLASSIFICATION_TYPE": "U", "NORAD_CAT_ID": 31357, "ELEMENT_SET_NO": 999, "REV_AT_EPOCH": 96911, "BSTAR": 4.6791e-05, "MEAN_MOTION_DOT": 5.5e-07, "MEAN_MOTION_DDOT": 0}, "tle": {"line1": "1 31357U 99025BRM 25361.33037802  .00000055  00000+0  46791-4 0  9997", "line2": "2 31357  98.6095  31.9051 0048859 249.6761 123.1637 14.18529526969118"}}, "geometry": {"type": "Point", "coordinates": [-154.67895793607187, -39.48756572616067]}}, {"type": "Feature", "properties": {"norad_id": 31358, "name": "FENGYUN 1C DEB", "group": "fengyun-1c-debris", "lat": -36.65755370733199, "lon": -55.52320341891509, "alt_km": 508.7039781053927, "timestamp": "2025-12-27T22:26:48.884998+00:00", "meta": {"OBJECT_NAME": "FENGYUN 1C DEB", "OBJECT_ID": "1999-025BRN", "EPOCH": "2025-12-24T18:55:57.832320", "MEAN_MOTION": 15.22563646, "ECCENTRICITY": 0.00436516, "INCLINATION": 98.9084, "RA_OF_ASC_NODE": 294.0441, "ARG_OF_PERICENTER": 79.5177, "MEAN_ANOMALY": 281.0969, "EPHEMERIS_TYPE": 0, "CLASSIFICATION_TYPE": "U", "NORAD_CAT_ID": 31358, "ELEMENT_SET_NO": 999, "REV_AT_EPOCH": 97753, "BSTAR": 0.0082771119, "MEAN_MOTION_DOT": 0.00202216, "MEAN_MOTION_DDOT": 0}, "tle": {"line1": "1 31358U 99025BRN 25358.78886380  .00202216  00000+0  82771-2 0  9995", "line2": "2 31358  98.9084 294.0441 0043651  79.5177 281.0969 15.22563646977535"}}, "geometry": {"type": "Point", "coordinates": [-55.52320341891509, -36.65755370733199]}}, {"type": "Feature", "properties": {"norad_id": 31361, "name": "FENGYUN 1C DEB", "group": "fengyun-1c-debris", "lat": -38.67743500825694, "lon": -16.400538545449923, "alt_km": 826.2359274737692, "timestamp": "2025-12-27T22:26:48.885008+00:00", "meta": {"OBJECT_NAME": "FENGYUN 1C DEB", "OBJECT_ID": "1999-025BRR", "EPOCH": "2025-12-27T09:04:48.568224", "MEAN_MOTION": 14.17753742, "ECCENTRICITY": 0.0045681, "INCLINATION": 98.5527, "RA_OF_ASC_NODE": 336.1442, "ARG_OF_PERICENTER": 29.2711, "MEAN_ANOMALY": 331.101, "EPHEMERIS_TYPE": 0, "CLASSIFICATION_TYPE": "U", "NORAD_CAT_ID": 31361, "ELEMENT_SET_NO": 999, "REV_AT_EPOCH": 96771, "BSTAR": 0.00016188, "MEAN_MOTION_DOT": 2.91e-06, "MEAN_MOTION_DDOT": 0}, "tle": {"line1": "1 31361U 99025BRR 25361.37833991  .00000291  00000+0  16188-3 0  9997", "line2": "2 31361  98.5527 336.1442 0045681  29.2711 331.1010 14.17753742967711"}}, "geometry": {"type": "Point", "coordinates": [-16.400538545449923, -38.67743500825694]}}]}